     2.100          NAVIGATION                              RINEX VERSION / TYPE
fic2rin                                 08/06/2017 00:04:23 PGM / RUN BY / DATE
                                                            END OF HEADER
 8 17  8  5  6  0  0.0 -.687725841999D-04 -.125055521494D-11  .000000000000D+00
     .270000000000D+02 -.434375000000D+02  .454161774804D-08 -.187093448379D+01
    -.220350921154D-05  .253296736628D-02  .142306089401D-05  .515366902542D+04
     .540000000000D+06 -.149011611938D-07  .157329829707D+01  .633299350739D-07
     .966999596992D+00  .356562500000D+03 -.623014666216D+00 -.840963600938D-08
    -.134648465792D-09  .100000000000D+01  .196000000000D+04  .000000000000D+00
     .240000000000D+01  .000000000000D+00  .558793544769D-08  .270000000000D+02
     .532806000000D+06  .400000000000D+01
 9 17  8  5  6  0  0.0  .419272109866D-03  .716227077646D-11  .000000000000D+00
     .780000000000D+02 -.111562500000D+02  .525021869268D-08 -.226663235591D+01
    -.482425093651D-06  .661697355099D-03  .520981848240D-05  .515357095909D+04
     .540000000000D+06 -.745058059692D-08 -.156827852482D+01  .372529029846D-08
     .952863663899D+00  .276906250000D+03  .191197330920D+01 -.828855953749D-08
    -.960754304987D-10  .100000000000D+01  .196000000000D+04  .000000000000D+00
     .240000000000D+01  .000000000000D+00  .931322574615D-09  .780000000000D+02
     .532806000000D+06  .400000000000D+01
10 17  8  5  6  0  0.0  .280328094959D-04  .111413100967D-10  .000000000000D+00
     .440000000000D+02  .133437500000D+02  .459197698856D-08 -.376430411540D+00
     .795349478722D-06  .266805465799D-02  .862404704094D-05  .515366942215D+04
     .540000000000D+06  .409781932831D-07 -.260783950223D+01  .577419996262D-07
     .960431249885D+00  .212718750000D+03 -.280382894140D+01 -.798354683249D-08
     .638598028743D-09  .100000000000D+01  .196000000000D+04  .000000000000D+00
     .240000000000D+01  .000000000000D+00  .186264514923D-08  .440000000000D+02
     .532806000000D+06  .400000000000D+01
11 17  8  5  6  0  0.0 -.707051716745D-03 -.250111042988D-11  .000000000000D+00
     .230000000000D+02 -.132500000000D+03  .572202405956D-08  .112739137363D+01
    -.715442001820D-05  .170297045261D-01  .566616654396D-05  .515372915077D+04
     .540000000000D+06 -.106170773506D-06  .222985879251D+01 -.365078449249D-06
     .901730798833D+00  .243312500000D+03  .167187371394D+01 -.895787313137D-08
    -.205365697163D-09  .100000000000D+01  .196000000000D+04  .000000000000D+00
     .240000000000D+01  .000000000000D+00 -.121071934700D-07  .230000000000D+02
     .532806000000D+06  .400000000000D+01
12 17  8  5  6  0  0.0  .376944430172D-03 -.113686837722D-11  .000000000000D+00
     .101000000000D+03  .101843750000D+03  .392409202561D-08  .482743841430D+00
     .533461570740D-05  .658162380569D-02  .550411641598D-05  .515374388313D+04
     .540000000000D+06 -.596046447754D-07  .595704700852D+00  .111758708954D-06
     .989024981455D+00  .287343750000D+03  .911912846179D+00 -.794175937758D-08
     .735744932444D-10  .100000000000D+01  .196000000000D+04  .000000000000D+00
     .240000000000D+01  .000000000000D+00 -.125728547573D-07  .101000000000D+03
     .532806000000D+06  .400000000000D+01
13 17  8  5  6  0  0.0 -.889948569238D-04 -.795807864051D-12  .000000000000D+00
     .420000000000D+02 -.161562500000D+02  .474091176372D-08  .225119509282D+01
    -.931322574615D-06  .351842632517D-02  .616349279881D-05  .515368609810D+04
     .540000000000D+06  .186264514923D-07 -.144094394668D+01 -.558793544769D-07
     .968859287713D+00  .266031250000D+03  .179364944916D+01 -.798747556756D-08
    -.260010830495D-09  .100000000000D+01  .196000000000D+04  .000000000000D+00
     .240000000000D+01  .000000000000D+00 -.111758708954D-07  .420000000000D+02
     .532806000000D+06  .400000000000D+01
14 17  8  5  6  0  0.0 -.798772089183D-04 -.113686837722D-11  .000000000000D+00
     .700000000000D+01 -.144062500000D+02  .492877673191D-08 -.269361749022D+01
    -.778585672379D-06  .934595311992D-02  .570900738239D-05  .515367091179D+04
     .540000000000D+06  .230967998505D-06 -.148088563327D+01 -.167638063431D-07
     .961381693132D+00  .267437500000D+03 -.195147650219D+01 -.802819154926D-08
    -.182507602174D-09  .100000000000D+01  .196000000000D+04  .000000000000D+00
     .240000000000D+01  .000000000000D+00 -.977888703346D-08  .700000000000D+01
     .532806000000D+06  .400000000000D+01
15 17  8  5  6  0  0.0 -.354274641722D-03 -.454747350886D-12  .000000000000D+00
     .700000000000D+02 -.105625000000D+02  .570880922339D-08  .304317719803D+01
    -.590458512306D-06  .940157356672D-02  .518746674061D-05  .515357911682D+04
     .540000000000D+06 -.111758708954D-06 -.163164096225D+01 -.130385160446D-06
     .928482222074D+00  .264906250000D+03  .588243682596D+00 -.839534970001D-08
    -.821462788651D-10  .100000000000D+01  .196000000000D+04  .000000000000D+00
     .240000000000D+01  .000000000000D+00 -.107102096081D-07  .700000000000D+02
     .532806000000D+06  .400000000000D+01
17 17  8  5  6  0  0.0 -.165371224284D-03  .216004991671D-11  .000000000000D+00
     .860000000000D+02 -.513437500000D+02  .410767110099D-08 -.237802915256D+01
    -.255927443504D-05  .117131585721D-01  .175461173058D-05  .515366483116D+04
     .540000000000D+06  .149011611938D-06  .163183488228D+01 -.111758708954D-06
     .980267058526D+00  .357437500000D+03 -.184736462796D+01 -.789175729480D-08
    -.130362572982D-09  .100000000000D+01  .196000000000D+04  .000000000000D+00
     .240000000000D+01  .000000000000D+00 -.111758708954D-07  .860000000000D+02
     .532806000000D+06  .400000000000D+01
19 17  8  5  6  0  0.0 -.492522027344D-03  .170530256582D-11  .000000000000D+00
     .290000000000D+02 -.535625000000D+02  .419910348094D-08  .632522586282D+00
    -.263564288616D-05  .102124678669D-01  .261701643467D-05  .515367175674D+04
     .540000000000D+06 -.236555933952D-06  .167953820362D+01 -.149011611938D-07
     .977582848158D+00  .342625000000D+03  .104196596060D+01 -.820819904729D-08
    -.273225666660D-09  .100000000000D+01  .196000000000D+04  .000000000000D+00
     .240000000000D+01  .000000000000D+00 -.153668224812D-07  .290000000000D+02
     .532806000000D+06  .400000000000D+01
21 17  8  5  6  0  0.0 -.489475205541D-03  .272848410532D-11  .000000000000D+00
     .780000000000D+02 -.949375000000D+02  .471341061819D-08 -.187598104500D-01
    -.495463609695D-05  .239504833007D-01  .971369445324D-05  .515363854408D+04
     .540000000000D+06 -.501051545143D-06  .259104028435D+01  .111758708954D-06
     .940757251687D+00  .188031250000D+03 -.165303943657D+01 -.849642533879D-08
     .203579908492D-10  .100000000000D+01  .196000000000D+04  .000000000000D+00
     .240000000000D+01  .000000000000D+00 -.977888703346D-08  .780000000000D+02
     .532806000000D+06  .400000000000D+01
22 17  8  5  6  0  0.0 -.777384266257D-04 -.125055521494D-10  .000000000000D+00
     .870000000000D+02  .162812500000D+02  .533343644475D-08 -.298846527170D+01
     .562518835068D-06  .740208977368D-02  .862032175064D-05  .515376256943D+04
     .540000000000D+06  .180676579475D-06 -.265275066009D+01 -.931322574615D-08
     .924147121820D+00  .191343750000D+03 -.169401140516D+01 -.821355641331D-08
     .640026659679D-09  .100000000000D+01  .196000000000D+04  .000000000000D+00
     .240000000000D+01  .000000000000D+00 -.176951289177D-07  .870000000000D+02
     .532806000000D+06  .400000000000D+01
23 17  8  5  6  0  0.0 -.215924344957D-03 -.454747350886D-12  .000000000000D+00
     .920000000000D+02 -.134062500000D+02  .537558105739D-08  .253246143836D+01
    -.761821866035D-06  .118808362167D-01  .534951686859D-05  .515369665718D+04
     .540000000000D+06 -.782310962677D-07 -.156710874480D+01 -.214204192162D-06
     .943723380998D+00  .271031250000D+03 -.243227215952D+01 -.821212778237D-08
    -.112147528538D-09  .100000000000D+01  .196000000000D+04  .000000000000D+00
     .240000000000D+01  .000000000000D+00 -.204890966415D-07  .920000000000D+02
     .532806000000D+06  .400000000000D+01
24 17  8  5  6  0  0.0 -.384845770895D-04 -.454747350886D-12  .000000000000D+00
     .130000000000D+02  .231250000000D+02  .483770150969D-08  .198689002869D+01
     .125169754028D-05  .576444901526D-02  .102240592241D-04  .515368585968D+04
     .540000000000D+06 -.165775418282D-06 -.544221818006D+00  .875443220139D-07
     .944701685520D+00  .174343750000D+03  .472068904799D+00 -.803497754621D-08
    -.399302346831D-09  .100000000000D+01  .196000000000D+04  .000000000000D+00
     .240000000000D+01  .000000000000D+00  .279396772385D-08  .130000000000D+02
     .532806000000D+06  .400000000000D+01
25 17  8  5  6  0  0.0 -.433703418821D-03 -.648014975013D-11  .000000000000D+00
     .750000000000D+02  .103218750000D+03  .423053336155D-08  .525214244824D-01
     .543147325516D-05  .656474183779D-02  .567361712456D-05  .515377705765D+04
     .540000000000D+06  .316649675369D-07  .539586938042D+00  .109896063805D-06
     .976921345861D+00  .276312500000D+03  .832542116069D+00 -.810033741157D-08
     .896465912832D-10  .100000000000D+01  .196000000000D+04  .000000000000D+00
     .240000000000D+01  .000000000000D+00  .558793544769D-08  .750000000000D+02
     .532806000000D+06  .400000000000D+01
26 17  8  5  6  0  0.0 -.459286384284D-03  .841282599140D-11  .000000000000D+00
     .940000000000D+02  .116000000000D+03  .449661587353D-08 -.584887635878D+00
     .597909092903D-05  .182221224532D-02  .596977770329D-05  .515374883461D+04
     .540000000000D+06  .763684511185D-07  .522947447409D+00 -.242143869400D-07
     .958653700552D+00  .266531250000D+03  .568693574541D-01 -.819141263379D-08
     .957182727646D-10  .100000000000D+01  .196000000000D+04  .000000000000D+00
     .240000000000D+01  .000000000000D+00  .745058059692D-08  .940000000000D+02
     .532806000000D+06  .400000000000D+01
